OBJECT_NAME,OBJECT_ID,EPOCH,MEAN_MOTION,ECCENTRICITY,INCLINATION,RA_OF_ASC_NODE,ARG_OF_PERICENTER,MEAN_ANOMALY,EPHEMERIS_TYPE,CLASSIFICATION_TYPE,NORAD_CAT_ID,ELEMENT_SET_NO,REV_AT_EPOCH,BSTAR,MEAN_MOTION_DOT,MEAN_MOTION_DDOT
KUIPER-00616,2026-151N,2026-07-14T14:15:26.555904,15.38376477,.0003134,51.8773,183.2093,119.7585,240.3715,0,U,69775,999,192,.21012E-3,.769E-4,0
KUIPER-00617,2026-151P,2026-07-14T23:42:39.199680,15.37776227,.00041621,51.8785,181.3453,133.9652,226.1679,0,U,69776,999,198,.30200048E-3,.11009E-3,0
KUIPER-00619,2026-151Q,2026-07-14T14:12:34.883424,15.38526505,.0001788,51.8788,183.1898,64.3633,295.7539,0,U,69777,999,192,.32627E-3,.12228E-3,0
KUIPER-00621,2026-151R,2026-07-14T12:41:39.846624,15.38316505,.0001876,51.8778,183.5215,104.1155,256.0041,0,U,69778,999,191,.29675E-3,.11006E-3,0
KUIPER-00622,2026-151S,2026-07-14T22:18:24.702912,15.36983774,.0007089,51.8726,181.7048,148.8319,211.3089,0,U,69779,999,197,.32619354E-3,.11619E-3,0
KUIPER-00623,2026-151T,2026-07-14T23:46:20.006112,15.37428985,.00050856,51.8763,181.3653,132.0960,228.0460,0,U,69780,999,198,.35471562E-3,.12855E-3,0
KUIPER-00626,2026-151U,2026-07-14T22:31:30.807264,15.35492231,.00082224,51.8710,181.7612,164.0003,196.1245,0,U,69781,999,197,.86479906E-3,.30049E-3,0
KUIPER-00627,2026-151V,2026-07-14T22:33:58.314528,15.35450421,.0011317,51.8689,181.7707,166.9356,193.1926,0,U,69782,999,197,.24451328E-3,.8189E-4,0
KUIPER-00629,2026-151W,2026-07-14T22:19:05.501856,15.36964944,.00073051,51.8736,181.7081,146.4797,213.6653,0,U,69783,999,197,.28801924E-3,.10205E-3,0
KUIPER-00631,2026-151X,2026-07-14T12:59:55.955040,15.36726137,.00078776,51.8705,183.6046,152.9876,207.1522,0,U,69784,999,191,.26678021E-3,.9349E-4,0
KUIPER-00634,2026-151Y,2026-07-14T23:43:22.270944,15.37733765,.00036589,51.8762,181.3526,133.5155,226.6136,0,U,69785,999,198,.33991558E-3,.12425E-3,0
KUIPER-00639,2026-151Z,2026-07-14T13:06:12.824064,15.35847516,.00099282,51.8677,183.6301,160.4705,199.6664,0,U,69786,999,191,-.9126209E-5,-.714E-5,0
KUIPER-00641,2026-151AA,2026-07-14T22:35:04.171200,15.35111907,.00090862,51.8673,181.7764,166.6532,193.4696,0,U,69787,999,197,.58404881E-3,.19899E-3,0
KUIPER-00644,2026-151AB,2026-07-14T08:21:04.000608,15.36547957,.00084241,51.8733,184.5570,155.0141,205.1254,0,U,69788,999,188,.32455227E-3,.11396E-3,0
KUIPER-00646,2026-151AC,2026-07-14T13:05:38.530176,15.35927525,.00097073,51.8698,183.6275,163.5259,196.6045,0,U,69789,999,191,-.99821261E-4,-.3939E-4,0
KUIPER-00647,2026-151AD,2026-07-14T22:32:42.473472,15.35517272,.00106055,51.8657,181.7643,163.8181,196.3146,0,U,69790,999,197,.14255157E-3,.4619E-4,0
KUIPER-00662,2026-151AE,2026-07-14T11:27:29.410272,15.36321024,.00082067,51.8719,183.9237,150.8768,209.2677,0,U,69791,999,190,-.36493324E-2,-.129583E-2,0
LINK,2026-152A,2026-07-14T13:09:23.434560,15.66971156,.0024505,20.5927,332.3809,346.3344,13.6438,0,U,69792,999,175,.10950058E-2,.126451E-2,0
2026-152B,2026-152B,2026-07-13T17:27:10.634688,15.64685266,.00224264,20.5989,338.8282,333.1353,26.7932,0,U,69793,999,162,.33008188E-3,.34944E-3,0
ISS OBJECT YJ,1998-067YJ,2026-07-14T22:06:39.195072,15.50016482,.0007754,51.6309,162.7652,310.2299,49.8011,0,U,69794,999,195,.34820905E-3,.19495E-3,0
ISS OBJECT YK,1998-067YK,2026-07-14T22:01:24.782016,15.50686922,.00067437,51.6307,162.7411,318.9843,41.0638,0,U,69795,999,195,.58943548E-3,.34183E-3,0
ISS OBJECT YL,1998-067YL,2026-07-14T22:02:43.515744,15.50455884,.00087941,51.6307,162.7470,311.6154,48.4081,0,U,69796,999,194,.47292462E-3,.271E-3,0
ISS OBJECT YM,1998-067YM,2026-07-14T22:02:22.472160,15.50497173,.00095729,51.6309,162.7451,302.7660,57.2406,0,U,69797,999,193,.48210081E-3,.27685E-3,0
ISS OBJECT YN,1998-067YN,2026-07-14T22:03:17.934048,15.50295985,.00092268,51.6309,162.7495,314.2657,45.7574,0,U,69798,999,195,.33787265E-3,.19101E-3,0
ISS OBJECT YP,1998-067YP,2026-07-14T22:02:15.976608,15.50492869,.0009742,51.6308,162.7447,302.8936,57.1115,0,U,69799,999,194,.46477612E-3,.26668E-3,0
QIANFAN-201,2026-153A,2026-07-14T21:46:42.703680,14.53448407,.00870592,89.0162,359.0111,87.9227,273.1948,0,U,69800,999,153,.11043672E-4,.67E-6,0
QIANFAN-202,2026-153B,2026-07-14T21:38:47.924448,14.22084805,.00063775,88.9965,359.0753,171.8728,188.2568,0,U,69801,999,150,.17117652E-4,.52E-6,0
QIANFAN-203,2026-153C,2026-07-14T21:37:05.530080,14.22926605,.00074739,88.9967,359.0751,177.6524,182.4704,0,U,69802,999,150,.17160809E-4,.53E-6,0
QIANFAN-204,2026-153D,2026-07-14T21:36:55.496448,14.22390513,.00071803,88.9922,359.0842,184.5573,175.5555,0,U,69803,999,150,.67352783E-4,.164E-5,0
QIANFAN-205,2026-153E,2026-07-14T21:38:34.761408,14.22264160,.00073876,88.9921,359.0841,182.9228,177.1922,0,U,69804,999,150,.57714979E-4,.143E-5,0
