KUIPER-00616            
1 69775U 26151N   26195.59405736  .00007690  00000+0  21012-3 0  9991
2 69775  51.8773 183.2093 0003134 119.7585 240.3715 15.38376477  1925
KUIPER-00617            
1 69776U 26151P   26195.98795370  .00011009  00000+0  30200-3 0  9999
2 69776  51.8785 181.3453 0004162 133.9652 226.1679 15.37776227  1986
KUIPER-00619            
1 69777U 26151Q   26195.59207041  .00012228  00000+0  32627-3 0  9999
2 69777  51.8788 183.1898 0001788  64.3633 295.7539 15.38526505  1924
KUIPER-00621            
1 69778U 26151R   26195.52893341  .00011006  00000+0  29675-3 0  9999
2 69778  51.8778 183.5215 0001876 104.1155 256.0041 15.38316505  1915
KUIPER-00622            
1 69779U 26151S   26195.92945258  .00011619  00000+0  32619-3 0  9991
2 69779  51.8726 181.7048 0007089 148.8319 211.3089 15.36983774  1970
KUIPER-00623            
1 69780U 26151T   26195.99050933  .00012855  00000+0  35472-3 0  9990
2 69780  51.8763 181.3653 0005085 132.0960 228.0460 15.37428985  1980
KUIPER-00626            
1 69781U 26151U   26195.93855101  .00030049  00000+0  86480-3 0  9995
2 69781  51.8710 181.7612 0008222 164.0003 196.1245 15.35492231  1979
KUIPER-00627            
1 69782U 26151V   26195.94025827  .00008189  00000+0  24451-3 0  9991
2 69782  51.8689 181.7707 0011317 166.9356 193.1926 15.35450421  1979
KUIPER-00629            
1 69783U 26151W   26195.92992479  .00010205  00000+0  28802-3 0  9992
2 69783  51.8736 181.7081 0007305 146.4797 213.6653 15.36964944  1978
KUIPER-00631            
1 69784U 26151X   26195.54161985  .00009349  00000+0  26678-3 0  9997
2 69784  51.8705 183.6046 0007877 152.9876 207.1522 15.36726137  1918
KUIPER-00634            
1 69785U 26151Y   26195.98845221  .00012425  00000+0  33992-3 0  9994
2 69785  51.8762 181.3526 0003658 133.5155 226.6136 15.37733765  1988
KUIPER-00639            
1 69786U 26151Z   26195.54598176 -.00000714  00000+0 -91262-5 0  9997
2 69786  51.8677 183.6301 0009928 160.4705 199.6664 15.35847516  1912
KUIPER-00641            
1 69787U 26151AA  26195.94102050  .00019899  00000+0  58405-3 0  9996
2 69787  51.8673 181.7764 0009086 166.6532 193.4696 15.35111907  1973
KUIPER-00644            
1 69788U 26151AB  26195.34796297  .00011396  00000+0  32455-3 0  9994
2 69788  51.8733 184.5570 0008424 155.0141 205.1254 15.36547957  1880
KUIPER-00646            
1 69789U 26151AC  26195.54558484 -.00003939  00000+0 -99821-4 0  9998
2 69789  51.8698 183.6275 0009707 163.5259 196.6045 15.35927525  1910
KUIPER-00647            
1 69790U 26151AD  26195.93938048  .00004619  00000+0  14255-3 0  9992
2 69790  51.8657 181.7643 0010605 163.8181 196.3146 15.35517272  1970
KUIPER-00662            
1 69791U 26151AE  26195.47742373 -.00129583  00000+0 -36493-2 0  9993
2 69791  51.8719 183.9237 0008206 150.8768 209.2677 15.36321024  1909
LINK                    
1 69792U 26152A   26195.54818790  .00126451  00000+0  10950-2 0  9999
2 69792  20.5927 332.3809 0024505 346.3344  13.6438 15.66971156  1756
2026-152B               
1 69793U 26152B   26194.72720642  .00034944  00000+0  33008-3 0  9992
2 69793  20.5989 338.8282 0022426 333.1353  26.7932 15.64685266  1627
ISS OBJECT YJ           
1 69794U 98067YJ  26195.92128698  .00019495  00000+0  34821-3 0  9991
2 69794  51.6309 162.7652 0007754 310.2299  49.8011 15.50016482  1959
ISS OBJECT YK           
1 69795U 98067YK  26195.91764794  .00034183  00000+0  58944-3 0  9997
2 69795  51.6307 162.7411 0006743 318.9843  41.0638 15.50686922  1959
ISS OBJECT YL           
1 69796U 98067YL  26195.91855921  .00027100  00000+0  47292-3 0  9996
2 69796  51.6307 162.7470 0008794 311.6154  48.4081 15.50455884  1941
ISS OBJECT YM           
1 69797U 98067YM  26195.91831565  .00027685  00000+0  48210-3 0  9994
2 69797  51.6309 162.7451 0009572 302.7660  57.2406 15.50497173  1936
ISS OBJECT YN           
1 69798U 98067YN  26195.91895757  .00019101  00000+0  33787-3 0  9995
2 69798  51.6309 162.7495 0009226 314.2657  45.7574 15.50295985  1952
ISS OBJECT YP           
1 69799U 98067YP  26195.91824047  .00026668  00000+0  46478-3 0  9997
2 69799  51.6308 162.7447 0009742 302.8936  57.1115 15.50492869  1942
QIANFAN-201             
1 69800U 26153A   26195.90743870  .00000067  00000+0  11044-4 0  9997
2 69800  89.0162 359.0111 0087059  87.9227 273.1948 14.53448407  1538
QIANFAN-202             
1 69801U 26153B   26195.90194357  .00000052  00000+0  17118-4 0  9990
2 69801  88.9965 359.0753 0006377 171.8728 188.2568 14.22084805  1508
QIANFAN-203             
1 69802U 26153C   26195.90075845  .00000053  00000+0  17161-4 0  9990
2 69802  88.9967 359.0751 0007473 177.6524 182.4704 14.22926605  1506
QIANFAN-204             
1 69803U 26153D   26195.90064232  .00000164  00000+0  67353-4 0  9990
2 69803  88.9922 359.0842 0007180 184.5573 175.5555 14.22390513  1505
QIANFAN-205             
1 69804U 26153E   26195.90179122  .00000143  00000+0  57715-4 0  9994
2 69804  88.9921 359.0841 0007387 182.9228 177.1922 14.22264160  1506
